start=new Date('2023-03-12T00:00:00.000Z').valueOf();
sats=[{"RCS_SIZE":"LARGE","DECAY_DATE":null,"ELEMENT_SET_NO":"999","ARG_OF_PERICENTER":"270.9555","FILE":"3857581","MEAN_ANOMALY":"89.1482","APOAPSIS":"564.161","RA_OF_ASC_NODE":"192.8387","MEAN_ELEMENT_THEORY":"SGP4","NORAD_CAT_ID":"53510","MEAN_MOTION_DOT":"0.00007012","TIME_SYSTEM":"UTC","SEMIMAJOR_AXIS":"6941.164","INCLINATION":"97.6566","BSTAR":"0.00055003000000","ECCENTRICITY":"0.00016320","OBJECT_TYPE":"PAYLOAD","PERIAPSIS":"561.896","MEAN_MOTION_DDOT":"0.0000000000000","LAUNCH_DATE":"2022-08-12","MEAN_MOTION":"15.01254579","PERIOD":"95.920","TLE_LINE1":"1 53510U 22099AX  23070.36423934  .00007012  00000-0  55003-3 0  9998","TLE_LINE2":"2 53510  97.6566 192.8387 0001632 270.9555  89.1482 15.01254579 31801","REF_FRAME":"TEME","COUNTRY_CODE":"US","EPOCH":"2023-03-11T08:44:30.278976","CLASSIFICATION_TYPE":"U","SITE":"AFWTR","CENTER_NAME":"EARTH","REV_AT_EPOCH":"3180","GP_ID":"227860312","OBJECT_NAME":"STARLINK-4441","EPHEMERIS_TYPE":"0","OBJECT_ID":"2022-099AX"},{"GP_ID":"227859813","OBJECT_ID":"2022-101A","OBJECT_NAME":"STARLINK-4511","EPHEMERIS_TYPE":"0","CLASSIFICATION_TYPE":"U","SITE":"AFETR","REV_AT_EPOCH":"3091","CENTER_NAME":"EARTH","REF_FRAME":"TEME","COUNTRY_CODE":"US","EPOCH":"2023-03-11T02:13:07.526208","TLE_LINE1":"1 53527U 22101A   23070.09244822  .00031090  00000-0  19628-2 0  9992","TLE_LINE2":"2 53527  53.2165 307.9599 0001077 101.6819 258.4294 15.08842734 30918","MEAN_MOTION_DDOT":"0.0000000000000","PERIAPSIS":"538.992","LAUNCH_DATE":"2022-08-19","PERIOD":"95.437","MEAN_MOTION":"15.08842734","INCLINATION":"53.2165","BSTAR":"0.00196280000000","OBJECT_TYPE":"PAYLOAD","ECCENTRICITY":"0.00010770","RA_OF_ASC_NODE":"307.9599","MEAN_ELEMENT_THEORY":"SGP4","SEMIMAJOR_AXIS":"6917.872","TIME_SYSTEM":"UTC","MEAN_MOTION_DOT":"0.00031090","NORAD_CAT_ID":"53527","DECAY_DATE":null,"RCS_SIZE":"LARGE","ARG_OF_PERICENTER":"101.6819","ELEMENT_SET_NO":"999","APOAPSIS":"540.482","MEAN_ANOMALY":"258.4294","FILE":"3857581"},{"PERIOD":"95.437","MEAN_MOTION":"15.08856028","LAUNCH_DATE":"2022-08-19","MEAN_MOTION_DDOT":"0.0000000000000","PERIAPSIS":"539.036","OBJECT_TYPE":"PAYLOAD","ECCENTRICITY":"0.00009540","BSTAR":"0.00169070000000","INCLINATION":"53.2148","SEMIMAJOR_AXIS":"6917.831","NORAD_CAT_ID":"53528","MEAN_MOTION_DOT":"0.00026734","TIME_SYSTEM":"UTC","MEAN_ELEMENT_THEORY":"SGP4","RA_OF_ASC_NODE":"304.3755","APOAPSIS":"540.356","FILE":"3857847","MEAN_ANOMALY":"265.9323","ELEMENT_SET_NO":"999","ARG_OF_PERICENTER":"94.1778","DECAY_DATE":null,"RCS_SIZE":"LARGE","OBJECT_ID":"2022-101B","OBJECT_NAME":"STARLINK-4503","EPHEMERIS_TYPE":"0","GP_ID":"227892874","REV_AT_EPOCH":"3103","CENTER_NAME":"EARTH","SITE":"AFETR","CLASSIFICATION_TYPE":"U","EPOCH":"2023-03-11T21:23:03.188832","COUNTRY_CODE":"US","REF_FRAME":"TEME","TLE_LINE2":"2 53528  53.2148 304.3755 0000954  94.1778 265.9323 15.08856028 31039","TLE_LINE1":"1 53528U 22101B   23070.89100913  .00026734  00000-0  16907-2 0  9999"},{"INCLINATION":"53.2174","BSTAR":"0.00218270000000","OBJECT_TYPE":"PAYLOAD","ECCENTRICITY":"0.00013160","MEAN_MOTION_DDOT":"0.0000000000000","PERIAPSIS":"538.860","LAUNCH_DATE":"2022-08-19","PERIOD":"95.438","MEAN_MOTION":"15.08831827","DECAY_DATE":null,"RCS_SIZE":"LARGE","ARG_OF_PERICENTER":"53.2970","ELEMENT_SET_NO":"999","APOAPSIS":"540.681","FILE":"3857581","MEAN_ANOMALY":"306.8143","RA_OF_ASC_NODE":"307.9771","MEAN_ELEMENT_THEORY":"SGP4","SEMIMAJOR_AXIS":"6917.905","MEAN_MOTION_DOT":"0.00034613","NORAD_CAT_ID":"53529","TIME_SYSTEM":"UTC","CLASSIFICATION_TYPE":"U","SITE":"AFETR","REV_AT_EPOCH":"3091","CENTER_NAME":"EARTH","GP_ID":"227858814","OBJECT_ID":"2022-101C","EPHEMERIS_TYPE":"0","OBJECT_NAME":"STARLINK-4478","TLE_LINE1":"1 53529U 22101C   23070.08876743  .00034613  00000-0  21827-2 0  9994","TLE_LINE2":"2 53529  53.2174 307.9771 0001316  53.2970 306.8143 15.08831827 30910","REF_FRAME":"TEME","COUNTRY_CODE":"US","EPOCH":"2023-03-11T02:07:49.505952"},{"GP_ID":"227859064","OBJECT_ID":"2022-101D","EPHEMERIS_TYPE":"0","OBJECT_NAME":"STARLINK-4482","CLASSIFICATION_TYPE":"U","SITE":"AFETR","REV_AT_EPOCH":"3091","CENTER_NAME":"EARTH","REF_FRAME":"TEME","COUNTRY_CODE":"US","EPOCH":"2023-03-11T01:58:36.403392","TLE_LINE1":"1 53530U 22101D   23070.08236578  .00003548  00000-0  24096-3 0  9997","TLE_LINE2":"2 53530  53.2176 308.0028 0001120  95.7815 264.3305 15.08830749 30913","MEAN_MOTION_DDOT":"0.0000000000000","PERIAPSIS":"538.999","LAUNCH_DATE":"2022-08-19","PERIOD":"95.438","MEAN_MOTION":"15.08830749","BSTAR":"0.00024096000000","INCLINATION":"53.2176","OBJECT_TYPE":"PAYLOAD","ECCENTRICITY":"0.00011200","RA_OF_ASC_NODE":"308.0028","MEAN_ELEMENT_THEORY":"SGP4","SEMIMAJOR_AXIS":"6917.909","MEAN_MOTION_DOT":"0.00003548","NORAD_CAT_ID":"53530","TIME_SYSTEM":"UTC","DECAY_DATE":null,"RCS_SIZE":"LARGE","ELEMENT_SET_NO":"999","ARG_OF_PERICENTER":"95.7815","APOAPSIS":"540.548","FILE":"3857581","MEAN_ANOMALY":"264.3305"},{"ELEMENT_SET_NO":"999","ARG_OF_PERICENTER":"98.6857","APOAPSIS":"540.287","FILE":"3857581","MEAN_ANOMALY":"261.4227","DECAY_DATE":null,"RCS_SIZE":"LARGE","MEAN_ELEMENT_THEORY":"SGP4","SEMIMAJOR_AXIS":"6917.860","MEAN_MOTION_DOT":"0.00023211","NORAD_CAT_ID":"53531","TIME_SYSTEM":"UTC","RA_OF_ASC_NODE":"307.9916","OBJECT_TYPE":"PAYLOAD","ECCENTRICITY":"0.00008130","INCLINATION":"53.2165","BSTAR":"0.00147140000000","LAUNCH_DATE":"2022-08-19","PERIOD":"95.437","MEAN_MOTION":"15.08846680","MEAN_MOTION_DDOT":"0.0000000000000","PERIAPSIS":"539.163","TLE_LINE2":"2 53531  53.2165 307.9916 0000813  98.6857 261.4227 15.08846680 30914","TLE_LINE1":"1 53531U 22101E   23070.08509074  .00023211  00000-0  14714-2 0  9996","EPOCH":"2023-03-11T02:02:31.839936","REF_FRAME":"TEME","COUNTRY_CODE":"US","SITE":"AFETR","REV_AT_EPOCH":"3091","CENTER_NAME":"EARTH","CLASSIFICATION_TYPE":"U","GP_ID":"227860314","OBJECT_ID":"2022-101E","OBJECT_NAME":"STARLINK-4487","EPHEMERIS_TYPE":"0"},{"GP_ID":"227892375","OBJECT_NAME":"STARLINK-4483","EPHEMERIS_TYPE":"0","OBJECT_ID":"2022-101F","CLASSIFICATION_TYPE":"U","SITE":"AFETR","CENTER_NAME":"EARTH","REV_AT_EPOCH":"3100","REF_FRAME":"TEME","COUNTRY_CODE":"US","EPOCH":"2023-03-11T15:33:19.031616","TLE_LINE1":"1 53532U 22101F   23070.64813694  .00015696  00000-0  10021-2 0  9990","TLE_LINE2":"2 53532  53.2140 305.4690 0001520  57.2074 302.9064 15.08840037 31009","PERIAPSIS":"538.694","MEAN_MOTION_DDOT":"0.0000000000000","LAUNCH_DATE":"2022-08-19","MEAN_MOTION":"15.08840037","PERIOD":"95.438","INCLINATION":"53.2140","BSTAR":"0.00100210000000","ECCENTRICITY":"0.00015200","OBJECT_TYPE":"PAYLOAD","RA_OF_ASC_NODE":"305.4690","MEAN_ELEMENT_THEORY":"SGP4","MEAN_MOTION_DOT":"0.00015696","NORAD_CAT_ID":"53532","TIME_SYSTEM":"UTC","SEMIMAJOR_AXIS":"6917.880","RCS_SIZE":"LARGE","DECAY_DATE":null,"ELEMENT_SET_NO":"999","ARG_OF_PERICENTER":"57.2074","FILE":"3857847","MEAN_ANOMALY":"302.9064","APOAPSIS":"540.797"},{"TLE_LINE1":"1 53533U 22101G   23070.64540922 -.00000334  00000-0 -29030-5 0  9990","TLE_LINE2":"2 53533  53.2152 305.4812 0001070  86.2677 273.8437 15.08836617 31009","REF_FRAME":"TEME","COUNTRY_CODE":"US","EPOCH":"2023-03-11T15:29:23.356608","CLASSIFICATION_TYPE":"U","SITE":"AFETR","CENTER_NAME":"EARTH","REV_AT_EPOCH":"3100","GP_ID":"227892626","EPHEMERIS_TYPE":"0","OBJECT_NAME":"STARLINK-4493","OBJECT_ID":"2022-101G","RCS_SIZE":"LARGE","DECAY_DATE":null,"ELEMENT_SET_NO":"999","ARG_OF_PERICENTER":"86.2677","MEAN_ANOMALY":"273.8437","FILE":"3857847","APOAPSIS":"540.496","RA_OF_ASC_NODE":"305.4812","MEAN_ELEMENT_THEORY":"SGP4","NORAD_CAT_ID":"53533","MEAN_MOTION_DOT":"-0.00000334","TIME_SYSTEM":"UTC","SEMIMAJOR_AXIS":"6917.891","INCLINATION":"53.2152","BSTAR":"-0.00000290300000","ECCENTRICITY":"0.00010700","OBJECT_TYPE":"PAYLOAD","PERIAPSIS":"539.016","MEAN_MOTION_DDOT":"0.0000000000000","LAUNCH_DATE":"2022-08-19","MEAN_MOTION":"15.08836617","PERIOD":"95.438"},{"PERIAPSIS":"538.863","MEAN_MOTION_DDOT":"0.0000000000000","MEAN_MOTION":"15.08843530","PERIOD":"95.437","LAUNCH_DATE":"2022-08-19","INCLINATION":"53.2142","BSTAR":"0.00242870000000","ECCENTRICITY":"0.00012600","OBJECT_TYPE":"PAYLOAD","RA_OF_ASC_NODE":"307.9135","TIME_SYSTEM":"UTC","MEAN_MOTION_DOT":"0.00038580","NORAD_CAT_ID":"53534","SEMIMAJOR_AXIS":"6917.870","MEAN_ELEMENT_THEORY":"SGP4","RCS_SIZE":"LARGE","DECAY_DATE":null,"MEAN_ANOMALY":"250.2589","FILE":"3857581","APOAPSIS":"540.606","ELEMENT_SET_NO":"999","ARG_OF_PERICENTER":"109.8539","OBJECT_NAME":"STARLINK-4488","EPHEMERIS_TYPE":"0","OBJECT_ID":"2022-101H","GP_ID":"227859565","CLASSIFICATION_TYPE":"U","CENTER_NAME":"EARTH","REV_AT_EPOCH":"3092","SITE":"AFETR","COUNTRY_CODE":"US","REF_FRAME":"TEME","EPOCH":"2023-03-11T02:29:01.562784","TLE_LINE1":"1 53534U 22101H   23070.10349031  .00038580  00000-0  24287-2 0  9998","TLE_LINE2":"2 53534  53.2142 307.9135 0001260 109.8539 250.2589 15.08843530 30923"},{"RA_OF_ASC_NODE":"308.4782","SEMIMAJOR_AXIS":"6917.885","TIME_SYSTEM":"UTC","MEAN_MOTION_DOT":"0.00006263","NORAD_CAT_ID":"53535","MEAN_ELEMENT_THEORY":"SGP4","DECAY_DATE":null,"RCS_SIZE":"LARGE","APOAPSIS":"540.637","MEAN_ANOMALY":"239.6478","FILE":"3857581","ELEMENT_SET_NO":"999","ARG_OF_PERICENTER":"120.4641","MEAN_MOTION_DDOT":"0.0000000000000","PERIAPSIS":"538.863","PERIOD":"95.438","MEAN_MOTION":"15.08838606","LAUNCH_DATE":"2022-08-19","BSTAR":"0.00041127000000","INCLINATION":"53.2146","OBJECT_TYPE":"PAYLOAD","ECCENTRICITY":"0.00012820","COUNTRY_CODE":"US","REF_FRAME":"TEME","EPOCH":"2023-03-10T23:28:51.047904","TLE_LINE1":"1 53535U 22101J   23069.97836861  .00006263  00000-0  41127-3 0  9990","TLE_LINE2":"2 53535  53.2146 308.4782 0001282 120.4641 239.6478 15.08838606 30903","OBJECT_ID":"2022-101J","EPHEMERIS_TYPE":"0","OBJECT_NAME":"STARLINK-4138","GP_ID":"227859814","CLASSIFICATION_TYPE":"U","REV_AT_EPOCH":"3090","CENTER_NAME":"EARTH","SITE":"AFETR"}];
